{
  "type": "FeatureCollection",
  "features": [
    {
      "type": "Feature",
      "properties": {
        "norad_id": 43823,
        "name": "GEO-KOMPSAT-2A",
        "group": "weather",
        "lat": -0.01622772266752627,
        "lon": -54.69596695282458,
        "alt_km": 35787.44651019425,
        "timestamp": "2025-12-03T06:58:42.884212+00:00",
        "meta_object_name": "GEO-KOMPSAT-2A",
        "meta_object_id": "2018-100A",
        "meta_epoch": "2025-12-02T05:57:38.748960",
        "meta_mean_motion": 1.00270582,
        "meta_eccentricity": 5.7e-05,
        "meta_inclination": 0.0606,
        "meta_ra_of_asc_node": 123.2735,
        "meta_arg_of_pericenter": 70.3508,
        "meta_mean_anomaly": 95.4102,
        "meta_ephemeris_type": 0,
        "meta_classification_type": "U",
        "meta_norad_cat_id": 43823,
        "meta_element_set_no": 999,
        "meta_rev_at_epoch": 2565,
        "meta_bstar": 0,
        "meta_mean_motion_dot": -3.23e-06,
        "meta_mean_motion_ddot": 0,
        "tle_line1": "1 43823U 18100A   25336.24836515 -.00000323  00000+0  00000+0 0  9990",
        "tle_line2": "2 43823   0.0606 123.2735 0000570  70.3508  95.4102  1.00270582 25656"
      },
      "geometry": {
        "type": "Point",
        "coordinates": [
          -54.69596695282458,
          -0.01622772266752627
        ]
      }
    },
    {
      "type": "Feature",
      "properties": {
        "norad_id": 44387,
        "name": "METEOR-M2 2",
        "group": "weather",
        "lat": -13.223956232799276,
        "lon": 134.79511686616593,
        "alt_km": 814.8124156646909,
        "timestamp": "2025-12-03T06:58:42.884223+00:00",
        "meta_object_name": "METEOR-M2 2",
        "meta_object_id": "2019-038A",
        "meta_epoch": "2025-12-02T19:57:28.709856",
        "meta_mean_motion": 14.24284618,
        "meta_eccentricity": 8.47e-05,
        "meta_inclination": 98.8962,
        "meta_ra_of_asc_node": 316.4397,
        "meta_arg_of_pericenter": 169.4743,
        "meta_mean_anomaly": 190.6453,
        "meta_ephemeris_type": 0,
        "meta_classification_type": "U",
        "meta_norad_cat_id": 44387,
        "meta_element_set_no": 999,
        "meta_rev_at_epoch": 33334,
        "meta_bstar": 0.00012698,
        "meta_mean_motion_dot": 2.47e-06,
        "meta_mean_motion_ddot": 0,
        "tle_line1": "1 44387U 19038A   25336.83158229  .00000247  00000+0  12698-3 0  9995",
        "tle_line2": "2 44387  98.8962 316.4397 0000847 169.4743 190.6453 14.24284618333340"
      },
      "geometry": {
        "type": "Point",
        "coordinates": [
          134.79511686616593,
          -13.223956232799276
        ]
      }
    },
    {
      "type": "Feature",
      "properties": {
        "norad_id": 47719,
        "name": "ARKTIKA-M 1",
        "group": "weather",
        "lat": 62.02266961030392,
        "lon": 157.38982726873468,
        "alt_km": 38314.57708531909,
        "timestamp": "2025-12-03T06:58:42.884236+00:00",
        "meta_object_name": "ARKTIKA-M 1",
        "meta_object_id": "2021-016A",
        "meta_epoch": "2025-12-01T02:41:41.634816",
        "meta_mean_motion": 2.00613156,
        "meta_eccentricity": 0.71974708,
        "meta_inclination": 63.1756,
        "meta_ra_of_asc_node": 85.6045,
        "meta_arg_of_pericenter": 269.084,
        "meta_mean_anomaly": 15.7076,
        "meta_ephemeris_type": 0,
        "meta_classification_type": "U",
        "meta_norad_cat_id": 47719,
        "meta_element_set_no": 999,
        "meta_rev_at_epoch": 3481,
        "meta_bstar": 0,
        "meta_mean_motion_dot": -1.2e-07,
        "meta_mean_motion_ddot": 0,
        "tle_line1": "1 47719U 21016A   25335.11228744 -.00000012  00000+0  00000+0 0  9997",
        "tle_line2": "2 47719  63.1756  85.6045 7197470 269.0840  15.7076  2.00613156 34816"
      },
      "geometry": {
        "type": "Point",
        "coordinates": [
          157.38982726873468,
          62.02266961030392
        ]
      }
    },
    {
      "type": "Feature",
      "properties": {
        "norad_id": 49008,
        "name": "FENGYUN 3E",
        "group": "weather",
        "lat": -56.564619157621465,
        "lon": -8.590884452452912,
        "alt_km": 832.2852892460933,
        "timestamp": "2025-12-03T06:58:42.884251+00:00",
        "meta_object_name": "FENGYUN 3E",
        "meta_object_id": "2021-062A",
        "meta_epoch": "2025-12-02T21:06:07.010784",
        "meta_mean_motion": 14.19877899,
        "meta_eccentricity": 7.78e-05,
        "meta_inclination": 98.7476,
        "meta_ra_of_asc_node": 337.5173,
        "meta_arg_of_pericenter": 327.277,
        "meta_mean_anomaly": 32.8357,
        "meta_ephemeris_type": 0,
        "meta_classification_type": "U",
        "meta_norad_cat_id": 49008,
        "meta_element_set_no": 999,
        "meta_rev_at_epoch": 22872,
        "meta_bstar": 5.0139e-05,
        "meta_mean_motion_dot": 6.2e-07,
        "meta_mean_motion_ddot": 0,
        "tle_line1": "1 49008U 21062A   25336.87924781  .00000062  00000+0  50139-4 0  9996",
        "tle_line2": "2 49008  98.7476 337.5173 0000778 327.2770  32.8357 14.19877899228725"
      },
      "geometry": {
        "type": "Point",
        "coordinates": [
          -8.590884452452912,
          -56.564619157621465
        ]
      }
    },
    {
      "type": "Feature",
      "properties": {
        "norad_id": 51850,
        "name": "GOES 18",
        "group": "weather",
        "lat": -0.00821903939657903,
        "lon": 40.03422155140289,
        "alt_km": 35788.35482339856,
        "timestamp": "2025-12-03T06:58:42.884263+00:00",
        "meta_object_name": "GOES 18",
        "meta_object_id": "2022-021A",
        "meta_epoch": "2025-12-02T16:33:27.976032",
        "meta_mean_motion": 1.00267928,
        "meta_eccentricity": 6.32e-05,
        "meta_inclination": 0.0163,
        "meta_ra_of_asc_node": 143.789,
        "meta_arg_of_pericenter": 138.5775,
        "meta_mean_anomaly": 260.791,
        "meta_ephemeris_type": 0,
        "meta_classification_type": "U",
        "meta_norad_cat_id": 51850,
        "meta_element_set_no": 999,
        "meta_rev_at_epoch": 462,
        "meta_bstar": 0,
        "meta_mean_motion_dot": 1.17e-06,
        "meta_mean_motion_ddot": 0,
        "tle_line1": "1 51850U 22021A   25336.68990713  .00000117  00000+0  00000+0 0  9995",
        "tle_line2": "2 51850   0.0163 143.7890 0000632 138.5775 260.7910  1.00267928  4622"
      },
      "geometry": {
        "type": "Point",
        "coordinates": [
          40.03422155140289,
          -0.00821903939657903
        ]
      }
    },
    {
      "type": "Feature",
      "properties": {
        "norad_id": 54234,
        "name": "NOAA 21 (JPSS-2)",
        "group": "weather",
        "lat": -38.58563083414941,
        "lon": -79.22840694451165,
        "alt_km": 833.5027223554935,
        "timestamp": "2025-12-03T06:58:42.884274+00:00",
        "meta_object_name": "NOAA 21 (JPSS-2)",
        "meta_object_id": "2022-150A",
        "meta_epoch": "2025-12-02T19:19:15.087072",
        "meta_mean_motion": 14.19519656,
        "meta_eccentricity": 0.0002545,
        "meta_inclination": 98.7447,
        "meta_ra_of_asc_node": 273.2379,
        "meta_arg_of_pericenter": 56.5226,
        "meta_mean_anomaly": 303.6193,
        "meta_ephemeris_type": 0,
        "meta_classification_type": "U",
        "meta_norad_cat_id": 54234,
        "meta_element_set_no": 999,
        "meta_rev_at_epoch": 15868,
        "meta_bstar": 8.9706e-05,
        "meta_mean_motion_dot": 1.45e-06,
        "meta_mean_motion_ddot": 0,
        "tle_line1": "1 54234U 22150A   25336.80503573  .00000145  00000+0  89706-4 0  9991",
        "tle_line2": "2 54234  98.7447 273.2379 0002545  56.5226 303.6193 14.19519656158684"
      },
      "geometry": {
        "type": "Point",
        "coordinates": [
          -79.22840694451165,
          -38.58563083414941
        ]
      }
    },
    {
      "type": "Feature",
      "properties": {
        "norad_id": 54743,
        "name": "METEOSAT-12 (MTG-I1)",
        "group": "weather",
        "lat": 0.37564268404019696,
        "lon": 176.73179660406944,
        "alt_km": 35783.117123146214,
        "timestamp": "2025-12-03T06:58:42.884286+00:00",
        "meta_object_name": "METEOSAT-12 (MTG-I1)",
        "meta_object_id": "2022-170C",
        "meta_epoch": "2025-12-02T17:12:31.734144",
        "meta_mean_motion": 1.00273571,
        "meta_eccentricity": 0.0001477,
        "meta_inclination": 0.7163,
        "meta_ra_of_asc_node": 29.8845,
        "meta_arg_of_pericenter": 214.3422,
        "meta_mean_anomaly": 85.4278,
        "meta_ephemeris_type": 0,
        "meta_classification_type": "U",
        "meta_norad_cat_id": 54743,
        "meta_element_set_no": 999,
        "meta_rev_at_epoch": 1100,
        "meta_bstar": 0,
        "meta_mean_motion_dot": 1.3e-07,
        "meta_mean_motion_ddot": 0,
        "tle_line1": "1 54743U 22170C   25336.71703396  .00000013  00000+0  00000+0 0  9992",
        "tle_line2": "2 54743   0.7163  29.8845 0001477 214.3422  85.4278  1.00273571 11007"
      },
      "geometry": {
        "type": "Point",
        "coordinates": [
          176.73179660406944,
          0.37564268404019696
        ]
      }
    }
  ]
}